{
  "norad_id": 61541,
  "name": "STARLINK-11357 [DTC]",
  "history": [
    {
      "epoch": "2026-03-28T20:35:17.261088",
      "apogee_km": 360.4671564964028,
      "perigee_km": 359.1295415709119,
      "latitude_deg": 5.749655473700167,
      "longitude_deg": 56.45251231989823,
      "semi_major_axis_km": 6737.935349033657,
      "eccentricity": 9.926e-05,
      "inclination_deg": 53.1594,
      "raan_deg": 142.0832,
      "arg_perigee_deg": 113.9988,
      "mean_anomaly_deg": 246.1134,
      "mean_motion_rev_day": 15.6968498
    }
  ]
}