{"fetched_at":"2026-03-29T16:36:15Z","count":15609,"tles":[{"name":"STARLINK-11357 [DTC]","line1":"1 61541U 24184K   26087.85783867 -.00003498  00000+0 -24056-4 0  9997","line2":"2 61541  53.1594 142.0832 0000992 113.9988 246.1134 15.69684980 83429","category":"Starlink"}]}